IRIDIUM 33 DEB          
1 35480U 97051QA  26064.06023190  .00003114  00000+0  79407-3 0  9999
2 35480  86.3617 349.2201 0012822 180.2098 179.9103 14.50261027882249
IRIDIUM 33 DEB          
1 35484U 97051QE  26050.19184175  .00037506  00000+0  25740-2 0  9995
2 35484  86.3587 320.5585 0011587 239.1626 120.8470 15.05777687630433
IRIDIUM 33 DEB          
1 35488U 97051QJ  26065.82009417  .00014552  00000+0  16794-2 0  9995
2 35488  86.3191 262.0359 0027494 100.5701 259.8622 14.85267719895135
IRIDIUM 33 DEB          
1 35616U 97051QN  26065.10425866  .00011975  00000+0  14121-2 0  9997
2 35616  86.3525 307.6388 0006641 247.1462 112.9061 14.84646370888108
IRIDIUM 33 DEB          
1 35618U 97051QQ  26063.46654887  .00002274  00000+0  54635-3 0  9990
2 35618  86.3417 317.7694 0030547 101.7612 258.7023 14.52714174665806
IRIDIUM 33 DEB          
1 35620U 97051QS  26064.76742037  .00010264  00000+0  29057-2 0  9999
2 35620  86.3913 182.3886 0130691 344.0446  15.6652 14.40556949611605
IRIDIUM 33 DEB          
1 35622U 97051QU  26065.41106387  .00047543  00000+0  26132-2 0  9997
2 35622  86.1939 222.0141 0006606 313.1330  76.0049 15.13873274886223
IRIDIUM 33 DEB          
1 35628U 97051RA  26065.46612349  .00008769  00000+0  14839-2 0  9996
2 35628  86.3599 331.7032 0013901  47.5155 312.7232 14.69175904876755
IRIDIUM 33 DEB          
1 35631U 97051RD  26064.23528819  .00001855  00000+0  49775-3 0  9999
2 35631  86.3720 345.4578 0015579 199.7119 312.3923 14.47619055883909
IRIDIUM 33 DEB          
1 35680U 97051RJ  26062.56771014  .00010642  00000+0  42353-2 0  9992
2 35680  86.1052 345.7068 0154844  22.2182  95.9581 14.22211774618498
IRIDIUM 33 DEB          
1 35744U 97051RX  26065.36451467  .00006873  00000+0  10796-2 0  9998
2 35744  86.3249 287.6142 0018773 271.7574  88.1493 14.72355333885613
IRIDIUM 33 DEB          
1 35797U 97051SF  26064.37394508  .00015202  00000+0  17513-2 0  9998
2 35797  86.3327 291.9267 0009999 227.1646 132.8739 14.85589234885667
IRIDIUM 33 DEB          
1 35806U 97051SQ  26063.06192268  .00007337  00000+0  15765-2 0  9990
2 35806  86.3464 344.7915 0014150 141.1989 219.0239 14.58406620875093
IRIDIUM 33 DEB          
1 35809U 97051ST  26061.41166348  .00010902  00000+0  15133-2 0  9991
2 35809  86.3258 299.0145 0011940 341.4382  18.6400 14.77775546879836
IRIDIUM 33 DEB          
1 35846U 97051SW  26065.30794006  .00003066  00000+0  89912-3 0  9992
2 35846  86.3784  23.1548 0015391 259.2944 100.6524 14.43542666725341
IRIDIUM 33 DEB          
1 35848U 97051SY  26064.02850151  .00015922  00000+0  20452-2 0  9993
2 35848  86.3931 339.0580 0005291 297.2212  62.8470 14.81095014679079
IRIDIUM 33 DEB          
1 35850U 97051TA  26063.95575906  .00013460  00000+0  17235-2 0  9999
2 35850  86.3508 306.7887 0007616 284.6052  75.4325 14.81217971725730
IRIDIUM 33 DEB          
1 35915U 97051TY  26064.93059460  .00012958  00000+0  15700-2 0  9998
2 35915  86.3430 304.8689 0008847 276.3191  83.7024 14.83514112 93188
IRIDIUM 33 DEB          
1 35918U 97051UB  26065.21104229  .00005314  00000+0  13049-2 0  9999
2 35918  86.4015  39.9460 0023352 251.9311 168.2014 14.52050989864182
IRIDIUM 33 DEB          
1 35929U 97051UN  26063.30489908  .00059943  00000+0  37251-2 0  9997
2 35929  86.3396 273.7871 0015419  83.8088 276.4906 15.09298145890077
IRIDIUM 33 DEB          
1 36011U 97051US  26065.09456341  .00002054  00000+0  62398-3 0  9995
2 36011  86.3459 359.6192 0017182 313.2326 105.7397 14.41658258657411
IRIDIUM 33 DEB          
1 36012U 97051UT  26064.53270048  .00005561  00000+0  20310-2 0  9995
2 36012  86.4395 274.1064 0217462 358.5424   1.5101 14.20574009666598
IRIDIUM 33 DEB          
1 36028U 97051VK  26060.88947523  .00025841  00000+0  20734-2 0  9998
2 36028  86.3146 269.3331 0017594 119.5716 240.7272 14.99842236883092
IRIDIUM 33 DEB          
1 36080U 97051VM  26056.50340220  .00001938  00000+0  52714-3 0  9996
2 36080  86.3236 335.4170 0014825 275.8181  84.1332 14.47006283484958
IRIDIUM 33 DEB          
1 36083U 97051VQ  26065.12009179  .00002475  00000+0  72219-3 0  9991
2 36083  86.3490 358.2528 0024829 315.2686  44.6512 14.43597471866525
IRIDIUM 33 DEB          
1 36390U 97051VU  26060.28946878  .00006003  00000+0  88857-3 0  9996
2 36390  86.2859 263.3476 0027954 255.4751 104.3366 14.74753978674193
IRIDIUM 33 DEB          
1 36483U 97051VZ  26056.63614572  .00001873  00000+0  51909-3 0  9994
2 36483  86.3812  20.4101 0007000 234.8466 125.2081 14.46131522662284
IRIDIUM 33 DEB          
1 36490U 97051WG  26063.19107783  .00020016  00000+0  27231-2 0  9992
2 36490  86.3682 333.6659 0004804 100.9326 259.2436 14.78663729876879
IRIDIUM 33 DEB          
1 36493U 97051WK  26063.50145132  .00011049  00000+0  19814-2 0  9994
2 36493  86.3608 335.3291 0013086  70.4596 289.8030 14.66622153757165
IRIDIUM 33 DEB          
1 37548U 97051XH  26058.61648586  .00004301  00000+0  10559-2 0  9993
2 37548  86.3541   9.8892 0022794 300.6162  59.2795 14.52027279666479
IRIDIUM 33 DEB          
1 37550U 97051XK  26065.52693406  .00009537  00000+0  16317-2 0  9999
2 37550  86.3812 346.7063 0003075 133.2414 226.9058 14.68758002875623
IRIDIUM 33 DEB          
1 37562U 97051XX  26065.60284765  .00006576  00000+0  14380-2 0  9993
2 37562  86.3789   7.0040 0023162 177.3085 355.7044 14.57479355875493
IRIDIUM 33 DEB          
1 37565U 97051YA  26064.05125251  .00002598  00000+0  63776-3 0  9992
2 37565  86.3534 333.7257 0013044 155.5044 204.6784 14.51991247670314
IRIDIUM 33 DEB          
1 38017U 97051YD  26063.62172731  .00012110  00000+0  28420-2 0  9999
2 38017  86.3373 130.5370 0091891 189.4457 170.5025 14.51808226625893
IRIDIUM 33 DEB          
1 38022U 97051YJ  26065.48508312  .00004504  00000+0  13485-2 0  9992
2 38022  86.2727 339.7589 0045881 129.2237 231.3050 14.42063599704003
IRIDIUM 33 DEB          
1 38028U 97051YQ  26064.42593813  .00001428  00000+0  38981-3 0  9992
2 38028  86.3275 324.3381 0026943 204.6743 155.3173 14.46490036666907
IRIDIUM 33 DEB          
1 38228U 97051ZC  26062.61739645  .00001147  00000+0  45098-3 0  9993
2 38228  86.2987  14.0747 0062368 291.7038 192.3455 14.27439275859356
IRIDIUM 33 DEB          
1 38241U 97051ZR  26064.98127887  .00003050  00000+0  69584-3 0  9990
2 38241  86.3233 313.8754 0004759 113.3476 246.8233 14.55528801614116
IRIDIUM 33 DEB          
1 38474U 97051AAB 26054.51272622  .00002644  00000+0  65939-3 0  9992
2 38474  86.3472 338.3518 0024339 199.6569 160.3701 14.51138309663733
IRIDIUM 33 DEB          
1 39777U 97051AAJ 26065.63122153  .00015308  00000+0  31924-2 0  9994
2 39777  85.9606 134.2664 0056592 260.0534  99.4284 14.58840829614075
IRIDIUM 33 DEB          
1 39778U 97051AAK 26065.56050942  .00005823  00000+0  13447-2 0  9994
2 39778  86.3828   6.8144 0009819  95.9059 264.3268 14.55080125619118
IRIDIUM 33 DEB          
1 40996U 97051ABJ 26060.72058470  .00046825  00000+0  33888-2 0  9993
2 40996  86.3492 324.3002 0011110 100.8093 289.4030 15.03751251636721
IRIDIUM 33 DEB          
1 40998U 97051ABL 26065.14241149  .00002345  00000+0  66052-3 0  9992
2 40998  86.3859  18.0087 0008117 144.7587 271.8155 14.45445631 78863
IRIDIUM 33 DEB          
1 46965U 97051ABX 26064.63141240  .00004076  00000+0  82387-3 0  9998
2 46965  86.3330 303.9282 0020944  47.4459 342.3534 14.61027741634789
IRIDIUM 33 DEB          
1 46971U 97051ACD 26046.17100049  .00032805  00000+0  24317-2 0  9995
2 46971  86.3384 302.6959 0018324 121.5358  29.3036 15.02823090651968
IRIDIUM 33 DEB          
1 46972U 97051ACE 26044.68140226  .00002565  00000+0  64340-3 0  9992
2 46972  86.3900  12.2992 0007091 258.5659 223.6549 14.51029384624851
IRIDIUM 33 DEB          
1 46974U 97051ACG 26050.81448888  .00008465  00000+0  22535-2 0  9995
2 46974  86.2960  75.0684 0088187 318.5740  40.8797 14.46114347585067
